ONEWEB-0235             
1 48771U 21045E   25044.61206601 -.00000234  00000+0 -65442-3 0  9990
2 48771  87.9118 356.4861 0002180  97.2216 262.9162 13.15547752180146
ONEWEB-0242             
1 48772U 21045F   25044.37755979  .00000019  00000+0  15264-4 0  9998
2 48772  87.9117 356.5191 0001791  88.7834 271.3501 13.15547524180150
ONEWEB-0241             
1 48773U 21045G   25044.36488543 -.00000249  00000+0 -69611-3 0  9999
2 48773  87.9122 356.5901 0002230  84.2069 275.9316 13.15547696180060
ONEWEB-0243             
1 48774U 21045H   25044.92898529 -.00000132  00000+0 -38579-3 0  9991
2 48774  87.9130 356.4406 0002026  95.6307 264.5054 13.15547723180168
ONEWEB-0222             
1 48775U 21045J   25044.83629181 -.00000146  00000+0 -42303-3 0  9993
2 48775  87.9116 356.4363 0002014  83.0135 277.1224 13.15547680180196
ONEWEB-0244             
1 48776U 21045K   25044.93847767  .00000480  00000+0  12401-2 0  9991
2 48776  87.9117 356.3962 0001082  99.4826 260.6427 13.15557237180779
ONEWEB-0247             
1 48777U 21045L   25044.55503714  .00000151  00000+0  36751-3 0  9991
2 48777  87.9127 356.5311 0002433 104.6492 255.4908 13.15547061180163
ONEWEB-0245             
1 48778U 21045M   25044.93056933 -.00000049  00000+0 -16458-3 0  9990
2 48778  87.9119 356.4309 0002066  80.4998 279.6366 13.15547785180186
